STARLINK-30142          
1 56836U 23079P   26068.14932778 -.00000951  00000+0 -25056-4 0  9990
2 56836  42.9981 106.8569 0000928 278.1929  81.8818 15.27563421152845
STARLINK-30494          
1 57970U 23151G   26068.36049035 -.00001272  00000+0 -35691-4 0  9993
2 57970  43.0027 192.4566 0001155 241.5536 118.5200 15.28417441137406
